SatCatId,ObjectName,LaunchYear,OrbitalPeriod,LaunchMass,StatusCode,Inclination,Status,UcsData,OrbitClassEstimated,LaunchSiteCountry,Owner,UseType,Purpose,LaunchVehicleClass,TLE1,TLE2,MeanMotion,Eccentricity,OrbitClass
52486,STARLINK-3918,2022,95.44,260.0,+,53.22,Active,1,LEO,USA,USA,Commercial,Communications,Falcon,1 52486U 22049AM  25203.49916265 -.00000566  00000+0 -17510-4 0  9992,2 52486  53.2194  12.4835 0001321  94.4074 265.7069 15.08831657177508,15.08831657,0.0001321,LEO
52487,STARLINK-3902,2022,95.44,260.0,+,53.22,Active,1,LEO,USA,USA,Commercial,Communications,Falcon,1 52487U 22049AN  25203.60313416 -.00000198  00000+0  56755-5 0  9990,2 52487  53.2193   2.1246 0001346  93.2741 266.8405 15.08834386178896,15.08834386,0.0001346,LEO
52488,STARLINK-3892,2022,95.44,260.0,+,53.22,Active,1,LEO,USA,USA,Commercial,Communications,Falcon,1 52488U 22049AP  25203.62795734  .00000102  00000+0  24512-4 0  9999,2 52488  53.2191  11.9060 0001249  88.1429 271.9707 15.08836088177527,15.08836088,0.0001249,LEO
52489,STARLINK-3923,2022,95.44,260.0,+,53.22,Active,1,LEO,USA,USA,Commercial,Communications,Falcon,1 52489U 22049AQ  25203.17163842 -.00000396  00000+0 -68001-5 0  9998,2 52489  53.2190  13.9544 0001248  92.6043 267.5092 15.08838558177451,15.08838558,0.0001248,LEO
52490,STARLINK-3914,2022,95.44,260.0,+,53.22,Active,1,LEO,USA,USA,Commercial,Communications,Falcon,1 52490U 22049AR  25203.57736433 -.00001281  00000+0 -62416-4 0  9993,2 52490  53.2180   2.1356 0001490  93.0902 267.0260 15.08845003177658,15.08845003,0.000149,LEO
52491,STARLINK-3908,2022,95.44,260.0,+,53.22,Active,1,LEO,USA,USA,Commercial,Communications,Falcon,1 52491U 22049AS  25203.58471747  .00000132  00000+0  26395-4 0  9997,2 52491  53.2185   2.1028 0001249  84.2030 275.9105 15.08836481177652,15.08836481,0.0001249,LEO
52492,STARLINK-3916,2022,95.44,260.0,+,53.22,Active,1,LEO,USA,USA,Commercial,Communications,Falcon,1 52492U 22049AT  25203.43752335 -.00000331  00000+0 -27399-5 0  9996,2 52492  53.2182   2.7633 0001240  88.1433 271.9701 15.08833940177632,15.0883394,0.000124,LEO
52493,STARLINK-3883,2022,95.44,260.0,+,53.22,Active,1,LEO,USA,USA,Commercial,Communications,Falcon,1 52493U 22049AU  25203.18359584  .00000130  00000+0  26253-4 0  9990,2 52493  53.2174   3.9025 0001340  85.1316 274.9830 15.08840734177590,15.08840734,0.000134,LEO
52494,STARLINK-3857,2022,95.44,260.0,+,53.22,Active,1,LEO,USA,USA,Commercial,Communications,Falcon,1 52494U 22049AV  25203.42647848  .00001124  00000+0  88698-4 0  9996,2 52494  53.2187   2.8144 0001304  91.4072 268.7070 15.08837458177635,15.08837458,0.0001304,LEO
52496,STARLINK-3871,2022,95.44,260.0,+,53.22,Active,1,LEO,USA,USA,Commercial,Communications,Falcon,1 52496U 22049AX  25203.59438228  .00000581  00000+0  54595-4 0  9991,2 52496  53.2181 357.0582 0001142  98.2331 261.8790 15.08834298177727,15.08834298,0.0001142,LEO
52497,STARLINK-3884,2022,95.44,260.0,+,53.22,Active,1,LEO,USA,USA,Commercial,Communications,Falcon,1 52497U 22049AY  25203.43384097  .00000568  00000+0  53748-4 0  9993,2 52497  53.2188   2.7788 0001340  87.1481 272.9664 15.08839982177638,15.08839982,0.000134,LEO
52498,STARLINK-3925,2022,95.44,260.0,+,53.22,Active,1,LEO,USA,USA,Commercial,Communications,Falcon,1 52498U 22049AZ  25203.60772091 -.00000252  00000+0  22353-5 0  9998,2 52498  53.2187 351.9995 0001285  87.0990 273.0149 15.08838604177796,15.08838604,0.0001285,LEO
52499,STARLINK-3894,2022,95.44,260.0,+,53.22,Active,1,LEO,USA,USA,Commercial,Communications,Falcon,1 52499U 22049BA  25202.83400340 -.00000446  00000+0 -99264-5 0  9999,2 52499  53.2188   5.4704 0001339  82.8856 277.2288 15.08834425177541,15.08834425,0.0001339,LEO
52500,STARLINK-3866,2022,95.44,260.0,+,53.22,Active,1,LEO,USA,USA,Commercial,Communications,Falcon,1 52500U 22049BB  25203.60404191 -.00000329  00000+0 -25959-5 0  9996,2 52500  53.2180 352.0151 0001251  87.3458 272.7677 15.08834857177792,15.08834857,0.0001251,LEO
52501,STARLINK-3907,2022,95.44,260.0,+,53.22,Active,1,LEO,USA,USA,Commercial,Communications,Falcon,1 52501U 22049BC  25203.60677571  .00000278  00000+0  35542-4 0  9990,2 52501  53.2186   1.7985 0001224  94.3110 265.8022 15.08834329177662,15.08834329,0.0001224,LEO
52502,STARLINK-3912,2022,95.44,260.0,+,53.22,Active,1,LEO,USA,USA,Commercial,Communications,Falcon,1 52502U 22049BD  25203.60036339  .00000410  00000+0  43846-4 0  9996,2 52502  53.2174 352.0595 0001149  88.8716 271.2408 15.08840453177793,15.08840453,0.0001149,LEO
52503,STARLINK-3861,2022,95.44,260.0,+,53.22,Active,1,LEO,USA,USA,Commercial,Communications,Falcon,1 52503U 22049BE  25203.58930869 -.00000051  00000+0  14878-4 0  9990,2 52503  53.2194 351.9642 0001268  90.1343 269.9794 15.08834455177798,15.08834455,0.0001268,LEO
52534,STARLINK-3952,2022,95.44,260.0,+,53.22,Active,1,LEO,USA,USA,Commercial,Communications,Falcon,1 52534U 22051B   25203.39703878  .00000105  00000+0  24682-4 0  9997,2 52534  53.2181  82.9476 0001460  85.4403 274.6756 15.08840023177410,15.08840023,0.000146,LEO
52535,STARLINK-3958,2022,95.44,260.0,+,53.22,Active,1,LEO,USA,USA,Commercial,Communications,Falcon,1 52535U 22051C   25203.39335920  .00000642  00000+0  58443-4 0  9995,2 52535  53.2175  82.9609 0001350  85.8072 274.3075 15.08839979176672,15.08839979,0.000135,LEO
52536,STARLINK-3964,2022,95.44,260.0,+,53.22,Active,1,LEO,USA,USA,Commercial,Communications,Falcon,1 52536U 22051D   25203.38967672 -.00000143  00000+0  90801-5 0  9992,2 52536  53.2179  82.9773 0001405  90.8170 269.2983 15.08844730176677,15.0884473,0.0001405,LEO
52537,STARLINK-3897,2022,95.44,260.0,+,53.22,Active,1,LEO,USA,USA,Commercial,Communications,Falcon,1 52537U 22051E   25203.36757780  .00000113  00000+0  25172-4 0  9992,2 52537  53.2187  82.8833 0001456  90.7604 269.3555 15.08836759176678,15.08836759,0.0001456,LEO
52538,STARLINK-3933,2022,95.44,260.0,+,53.22,Active,1,LEO,USA,USA,Commercial,Communications,Falcon,1 52538U 22051F   25203.37864193 -.00000039  00000+0  15621-4 0  9997,2 52538  53.2180  83.0254 0001405  92.9664 267.1489 15.08836261176676,15.08836261,0.0001405,LEO
52539,STARLINK-3757,2022,95.44,260.0,+,53.22,Active,1,LEO,USA,USA,Commercial,Communications,Falcon,1 52539U 22051G   25203.38232304  .00002019  00000+0  14491-3 0  9994,2 52539  53.2178  83.0092 0001405  92.9131 267.2022 15.08840774176671,15.08840774,0.0001405,LEO
52540,STARLINK-3940,2022,95.44,260.0,+,53.22,Active,1,LEO,USA,USA,Commercial,Communications,Falcon,1 52540U 22051H   25203.37128432  .00000268  00000+0  34952-4 0  9990,2 52540  53.2174  83.0977 0001294  91.4074 268.7066 15.08837768176670,15.08837768,0.0001294,LEO
52541,STARLINK-3845,2022,95.44,260.0,+,53.22,Active,1,LEO,USA,USA,Commercial,Communications,Falcon,1 52541U 22051J   25203.07090105  .00000368  00000+0  41237-4 0  9998,2 52541  53.2181  89.4096 0001419  81.8948 278.2205 15.08837876176551,15.08837876,0.0001419,LEO
52542,STARLINK-3937,2022,95.44,260.0,+,53.22,Active,1,LEO,USA,USA,Commercial,Communications,Falcon,1 52542U 22051K   25203.36392109  .00000183  00000+0  29563-4 0  9993,2 52542  53.2180  83.0961 0001001 108.9537 251.1564 15.08838485176672,15.08838485,0.0001001,LEO
52543,STARLINK-3926,2022,95.44,260.0,+,53.22,Active,1,LEO,USA,USA,Commercial,Communications,Falcon,1 52543U 22051L   25203.37496062  .00000624  00000+0  57295-4 0  9991,2 52543  53.2183  83.0431 0001361  91.3819 268.7329 15.08839993176673,15.08839993,0.0001361,LEO
52544,STARLINK-3944,2022,95.44,260.0,+,53.22,Active,1,LEO,USA,USA,Commercial,Communications,Falcon,1 52544U 22051M   25203.39474491 -.00002304  00000+0 -12676-3 0  9998,2 52544  53.2184  87.9649 0001483  86.7968 273.3194 15.08824842176609,15.08824842,0.0001483,LEO
52546,STARLINK-3948,2022,95.44,260.0,+,53.22,Active,1,LEO,USA,USA,Commercial,Communications,Falcon,1 52546U 22051P   25203.40164873 -.00000236  00000+0  32785-5 0  9998,2 52546  53.2171  82.6919 0001425  94.9981 265.1174 15.08836488176685,15.08836488,0.0001425,LEO
52548,STARLINK-3931,2022,95.44,260.0,+,53.22,Active,1,LEO,USA,USA,Commercial,Communications,Falcon,1 52548U 22051R   25203.07687144  .00000615  00000+0  56741-4 0  9991,2 52548  53.2175  84.3810 0001360  91.3532 268.7616 15.08843971176631,15.08843971,0.000136,LEO
52549,STARLINK-3935,2022,95.44,260.0,+,53.22,Active,1,LEO,USA,USA,Commercial,Communications,Falcon,1 52549U 22051S   25203.62520192 -.00000222  00000+0  41390-5 0  9992,2 52549  53.2173  81.9214 0001622  91.3775 268.7402 15.08832909176712,15.08832909,0.0001622,LEO
52550,STARLINK-3965,2022,95.44,260.0,+,53.22,Active,1,LEO,USA,USA,Commercial,Communications,Falcon,1 52550U 22051T   25203.08423805 -.00000245  00000+0  27192-5 0  9996,2 52550  53.2174  84.3497 0001396  96.4364 263.6787 15.08838201176635,15.08838201,0.0001396,LEO
52551,STARLINK-3969,2022,95.44,260.0,+,53.22,Active,1,LEO,USA,USA,Commercial,Communications,Falcon,1 52551U 22051U   25203.35655954 -.00000209  00000+0  49606-5 0  9993,2 52551  53.2187  83.1286 0001496  89.0815 271.0348 15.08837280176679,15.0883728,0.0001496,LEO
52552,STARLINK-3966,2022,95.44,260.0,+,53.22,Active,1,LEO,USA,USA,Commercial,Communications,Falcon,1 52552U 22051V   25203.08793537 -.00003273  00000+0 -18756-3 0  9999,2 52552  53.2180  84.4878 0001726  97.8328 262.2860 15.08850300176631,15.088503,0.0001726,LEO
52553,STARLINK-3858,2022,95.44,260.0,+,53.22,Active,1,LEO,USA,USA,Commercial,Communications,Falcon,1 52553U 22051W   25203.38595795  .00000010  00000+0  18698-4 0  9999,2 52553  53.2178  82.6522 0001453  84.0356 276.0802 15.08839728176686,15.08839728,0.0001453,LEO
52554,STARLINK-3770,2022,95.44,260.0,+,53.22,Active,1,LEO,USA,USA,Commercial,Communications,Falcon,1 52554U 22051X   25203.05986394 -.00000499  00000+0 -13271-4 0  9998,2 52554  53.2185  89.4573 0001444  90.5149 269.6009 15.08834780176554,15.0883478,0.0001444,LEO
